ONEWEB-0720             
1 55835U 23029AR  26165.84901906  .00000000  00000+0 -32106-4 0  9995
2 55835  87.9165 305.4431 0001584 103.2504 256.8805 13.19724455158534
ONEWEB-0537             
1 56046U 23043A   26165.61070382  .00000054  00000+0  10892-3 0  9991
2 56046  87.9097 229.2832 0002271  99.7863 260.3524 13.16594101158620
ONEWEB-0538             
1 56047U 23043B   26165.60437067  .00000016  00000+0  89536-5 0  9999
2 56047  87.9099 229.2869 0002119 105.5249 254.6116 13.16594409158633
ONEWEB-0546             
1 56048U 23043C   26165.59170546 -.00000070  00000+0 -21669-3 0  9997
2 56048  87.9100 229.2894 0002765  98.0437 262.1008 13.16594774158625
ONEWEB-0547             
1 56049U 23043D   26165.59875216 -.00000015  00000+0 -66881-4 0  9999
2 56049  87.9261 244.4890 0001943 103.6850 256.4500 13.21825178157889
ONEWEB-0548             
1 56050U 23043E   26165.61623003  .00000062  00000+0  12809-3 0  9999
2 56050  87.9096 229.2808 0002017  85.3360 274.8002 13.16596494158626
ONEWEB-0549             
1 56051U 23043F   26165.59286859 -.00000041  00000+0 -13152-3 0  9992
2 56051  87.9253 244.4968 0002064 109.9571 250.1785 13.21825617157887
ONEWEB-0550             
1 56052U 23043G   26165.65511819  .00000015  00000+0  48277-5 0  9994
2 56052  87.9258 244.4820 0001920  93.2799 266.8555 13.21825987157897
ONEWEB-0551             
1 56053U 23043H   26165.64533963  .00000107  00000+0  25093-3 0  9999
2 56053  87.9003 259.7327 0001887 110.8546 249.2787 13.15549208156067
ONEWEB-0552             
1 56054U 23043J   26165.65004617  .00000026  00000+0  30998-4 0  9991
2 56054  87.9252 244.4887 0001816  99.9745 260.1594 13.21828302157898
ONEWEB-0553             
1 56055U 23043K   26165.59803478 -.00000029  00000+0 -10998-3 0  9999
2 56055  87.9097 229.2886 0002452  95.0804 265.0606 13.16594551158637
ONEWEB-0554             
1 56056U 23043L   26165.66137624  .00000651  00000+0  16700-2 0  9996
2 56056  87.9095 229.2850 0001964  82.4426 277.6928 13.16592103158620
ONEWEB-0555             
1 56057U 23043M   26165.54735406  .00000035  00000+0  59200-4 0  9996
2 56057  87.9102 229.2957 0002661  96.3180 263.8254 13.16596026158610
ONEWEB-0557             
1 56058U 23043N   26165.63761440  .00000104  00000+0  23958-3 0  9991
2 56058  87.9100 229.2878 0002849  74.0374 286.1071 13.16594204158629
ONEWEB-0558             
1 56059U 23043P   26165.64331824  .00000029  00000+0  38870-4 0  9998
2 56059  87.9255 244.4848 0002148 108.0244 252.1124 13.21827452157905
ONEWEB-0559             
1 56060U 23043Q   26165.78293124 -.00000075  00000+0 -21273-3 0  9996
2 56060  87.9258 244.4519 0001895 104.3128 255.8216 13.21826690157931
ONEWEB-0566             
1 56061U 23043R   26165.77622227 -.00000060  00000+0 -17564-3 0  9998
2 56061  87.9256 244.4514 0001889 107.8907 252.2433 13.21826379157915
ONEWEB-0568             
1 56062U 23043S   26165.65503634 -.00000046  00000+0 -15468-3 0  9991
2 56062  87.9099 229.2740 0002368  96.4964 263.6436 13.16594437158643
ONEWEB-0574             
1 56063U 23043T   26165.76948377 -.00000038  00000+0 -12301-3 0  9995
2 56063  87.9266 244.4554 0002089  93.7491 266.3882 13.21824132157959
ONEWEB-0575             
1 56064U 23043U   26165.64870471 -.00000027  00000+0 -10544-3 0  9997
2 56064  87.9100 229.2717 0002317  88.6365 271.5032 13.16594207158638
ONEWEB-0576             
1 56065U 23043V   26165.55370163  .00000042  00000+0  77356-4 0  9991
2 56065  87.9102 229.2982 0002160  92.1751 267.9627 13.16593785158617
ONEWEB-0577             
1 56066U 23043W   26165.63603749  .00000030  00000+0  44858-4 0  9998
2 56066  87.9102 229.2796 0002302  78.0592 282.0797 13.16593493158651
ONEWEB-0578             
1 56067U 23043X   26165.75603183 -.00000100  00000+0 -27405-3 0  9992
2 56067  87.9258 244.4561 0002350  97.9763 262.1638 13.21824807157919
ONEWEB-0579             
1 56068U 23043Y   26165.59624108 -.00000026  00000+0 -95591-4 0  9994
2 56068  87.9264 244.4847 0001739 100.2836 259.8494 13.21826601157909
ONEWEB-0581             
1 56069U 23043Z   26165.64235411  .00000009  00000+0 -11020-4 0  9991
2 56069  87.9100 229.2895 0002112  81.7658 278.3712 13.16592357158625
ONEWEB-0609             
1 56070U 23043AA  26165.82360044 -.00000087  00000+0 -26579-3 0  9995
2 56070  87.9001 259.6826 0002012 102.4336 257.7020 13.15549818156120
ONEWEB-0613             
1 56071U 23043AB  26165.82121652 -.00000218  00000+0 -61294-3 0  9995
2 56071  87.9001 259.6951 0001764 105.9807 254.1517 13.15549963156127
ONEWEB-0630             
1 56072U 23043AC  26165.81646145 -.00000195  00000+0 -55098-3 0  9993
2 56072  87.9006 259.6676 0001788 104.3504 255.7825 13.15546673156113
ONEWEB-0632             
1 56073U 23043AD  26165.81172398 -.00000155  00000+0 -44639-3 0  9993
2 56073  87.9004 259.6866 0001954  95.4653 264.6701 13.15548569156111
ONEWEB-0633             
1 56074U 23043AE  26165.65325742  .00000006  00000+0 -19367-4 0  9994
2 56074  87.9011 259.6932 0001773 112.1711 247.9607 13.15546824156071
