OBJECT_NAME,OBJECT_ID,EPOCH,MEAN_MOTION,ECCENTRICITY,INCLINATION,RA_OF_ASC_NODE,ARG_OF_PERICENTER,MEAN_ANOMALY,EPHEMERIS_TYPE,CLASSIFICATION_TYPE,NORAD_CAT_ID,ELEMENT_SET_NO,REV_AT_EPOCH,BSTAR,MEAN_MOTION_DOT,MEAN_MOTION_DDOT
ONEWEB-0720,2023-029AR,2026-06-14T20:22:35.246784,13.19724455,.0001584,87.9165,305.4431,103.2504,256.8805,0,U,55835,999,15853,-.32106E-4,0,0
ONEWEB-0537,2023-043A,2026-06-14T14:39:24.810048,13.16594101,.0002271,87.9097,229.2832,99.7863,260.3524,0,U,56046,999,15862,.10892E-3,.54E-6,0
ONEWEB-0538,2023-043B,2026-06-14T14:30:17.625888,13.16594409,.0002119,87.9099,229.2869,105.5249,254.6116,0,U,56047,999,15863,.89536E-5,.16E-6,0
ONEWEB-0546,2023-043C,2026-06-14T14:12:03.351744,13.16594774,.0002765,87.9100,229.2894,98.0437,262.1008,0,U,56048,999,15862,-.21669E-3,-.7E-6,0
ONEWEB-0547,2023-043D,2026-06-14T14:22:12.186624,13.21825178,.0001943,87.9261,244.4890,103.6850,256.4500,0,U,56049,999,15788,-.66881E-4,-.15E-6,0
ONEWEB-0548,2023-043E,2026-06-14T14:47:22.274592,13.16596494,.0002017,87.9096,229.2808,85.3360,274.8002,0,U,56050,999,15862,.12809E-3,.62E-6,0
ONEWEB-0549,2023-043F,2026-06-14T14:13:43.846176,13.21825617,.0002064,87.9253,244.4968,109.9571,250.1785,0,U,56051,999,15788,-.13152E-3,-.41E-6,0
ONEWEB-0550,2023-043G,2026-06-14T15:43:22.211616,13.21825987,.000192,87.9258,244.4820,93.2799,266.8555,0,U,56052,999,15789,.48277E-5,.15E-6,0
ONEWEB-0551,2023-043H,2026-06-14T15:29:17.344032,13.15549208,.0001887,87.9003,259.7327,110.8546,249.2787,0,U,56053,999,15606,.25093E-3,.107E-5,0
ONEWEB-0552,2023-043J,2026-06-14T15:36:03.989088,13.21828302,.0001816,87.9252,244.4887,99.9745,260.1594,0,U,56054,999,15789,.30998E-4,.26E-6,0
ONEWEB-0553,2023-043K,2026-06-14T14:21:10.204992,13.16594551,.0002452,87.9097,229.2886,95.0804,265.0606,0,U,56055,999,15863,-.10998E-3,-.29E-6,0
ONEWEB-0554,2023-043L,2026-06-14T15:52:22.907136,13.16592103,.0001964,87.9095,229.2850,82.4426,277.6928,0,U,56056,999,15862,.167E-2,.651E-5,0
ONEWEB-0555,2023-043M,2026-06-14T13:08:11.390784,13.16596026,.0002661,87.9102,229.2957,96.3180,263.8254,0,U,56057,999,15861,.592E-4,.35E-6,0
ONEWEB-0557,2023-043N,2026-06-14T15:18:09.884160,13.16594204,.0002849,87.9100,229.2878,74.0374,286.1071,0,U,56058,999,15862,.23958E-3,.104E-5,0
ONEWEB-0558,2023-043P,2026-06-14T15:26:22.695936,13.21827452,.0002148,87.9255,244.4848,108.0244,252.1124,0,U,56059,999,15790,.3887E-4,.29E-6,0
ONEWEB-0559,2023-043Q,2026-06-14T18:47:25.259136,13.21826690,.0001895,87.9258,244.4519,104.3128,255.8216,0,U,56060,999,15793,-.21273E-3,-.75E-6,0
ONEWEB-0566,2023-043R,2026-06-14T18:37:45.604128,13.21826379,.0001889,87.9256,244.4514,107.8907,252.2433,0,U,56061,999,15791,-.17564E-3,-.6E-6,0
ONEWEB-0568,2023-043S,2026-06-14T15:43:15.139776,13.16594437,.0002368,87.9099,229.2740,96.4964,263.6436,0,U,56062,999,15864,-.15468E-3,-.46E-6,0
ONEWEB-0574,2023-043T,2026-06-14T18:28:03.397728,13.21824132,.0002089,87.9266,244.4554,93.7491,266.3882,0,U,56063,999,15795,-.12301E-3,-.38E-6,0
ONEWEB-0575,2023-043U,2026-06-14T15:34:08.086944,13.16594207,.0002317,87.9100,229.2717,88.6365,271.5032,0,U,56064,999,15863,-.10544E-3,-.27E-6,0
ONEWEB-0576,2023-043V,2026-06-14T13:17:19.820832,13.16593785,.000216,87.9102,229.2982,92.1751,267.9627,0,U,56065,999,15861,.77356E-4,.42E-6,0
ONEWEB-0577,2023-043W,2026-06-14T15:15:53.639136,13.16593493,.0002302,87.9102,229.2796,78.0592,282.0797,0,U,56066,999,15865,.44858E-4,.3E-6,0
ONEWEB-0578,2023-043X,2026-06-14T18:08:41.150112,13.21824807,.000235,87.9258,244.4561,97.9763,262.1638,0,U,56067,999,15791,-.27405E-3,-.1E-5,0
ONEWEB-0579,2023-043Y,2026-06-14T14:18:35.229312,13.21826601,.0001739,87.9264,244.4847,100.2836,259.8494,0,U,56068,999,15790,-.95591E-4,-.26E-6,0
ONEWEB-0581,2023-043Z,2026-06-14T15:24:59.395104,13.16592357,.0002112,87.9100,229.2895,81.7658,278.3712,0,U,56069,999,15862,-.1102E-4,.9E-7,0
ONEWEB-0609,2023-043AA,2026-06-14T19:45:59.078016,13.15549818,.0002012,87.9001,259.6826,102.4336,257.7020,0,U,56070,999,15612,-.26579E-3,-.87E-6,0
ONEWEB-0613,2023-043AB,2026-06-14T19:42:33.107328,13.15549963,.0001764,87.9001,259.6951,105.9807,254.1517,0,U,56071,999,15612,-.61294E-3,-.218E-5,0
ONEWEB-0630,2023-043AC,2026-06-14T19:35:42.269280,13.15546673,.0001788,87.9006,259.6676,104.3504,255.7825,0,U,56072,999,15611,-.55098E-3,-.195E-5,0
ONEWEB-0632,2023-043AD,2026-06-14T19:28:52.951872,13.15548569,.0001954,87.9004,259.6866,95.4653,264.6701,0,U,56073,999,15611,-.44639E-3,-.155E-5,0
ONEWEB-0633,2023-043AE,2026-06-14T15:40:41.441088,13.15546824,.0001773,87.9011,259.6932,112.1711,247.9607,0,U,56074,999,15607,-.19367E-4,.6E-7,0
